start=new Date('2021-09-26T00:00:00.000Z').valueOf();
sats=[{"OBJECT_TYPE":"PAYLOAD","OBJECT_ID":"2021-017L","TLE_LINE1":"1 47732U 21017L   21268.63177631  .00055436  00000-0  39541-3 0  9995","ECCENTRICITY":"0.00045100","PERIAPSIS":"346.532","OBJECT_NAME":"STARLINK-2142","COUNTRY_CODE":"US","EPHEMERIS_TYPE":"0","PERIOD":"91.529","MEAN_ANOMALY":"9.5764","RA_OF_ASC_NODE":"243.9020","ARG_OF_PERICENTER":"350.5168","MEAN_MOTION":"15.73268056","MEAN_ELEMENT_THEORY":"SGP4","REF_FRAME":"TEME","SEMIMAJOR_AXIS":"6727.701","NORAD_CAT_ID":"47732","BSTAR":"0.00039541000000","TLE_LINE2":"2 47732  53.0420 243.9020 0004510 350.5168   9.5764 15.73268056 33591","RCS_SIZE":"LARGE","DECAY_DATE":null,"MEAN_MOTION_DOT":"0.00055436","ELEMENT_SET_NO":"999","CENTER_NAME":"EARTH","GP_ID":"185506713","MEAN_MOTION_DDOT":"0.0000000000000","FILE":"3128274","EPOCH":"2021-09-25T15:09:45.473184","APOAPSIS":"352.600","CLASSIFICATION_TYPE":"U","REV_AT_EPOCH":"3359","INCLINATION":"53.0420","SITE":"AFETR","LAUNCH_DATE":"2021-03-04","TIME_SYSTEM":"UTC"},{"PERIOD":"95.592","RA_OF_ASC_NODE":"322.2877","MEAN_ANOMALY":"275.9947","OBJECT_TYPE":"PAYLOAD","OBJECT_ID":"2021-017M","EPHEMERIS_TYPE":"0","COUNTRY_CODE":"US","TLE_LINE1":"1 47733U 21017M   21268.42660867  .00000052  00000-0  22372-4 0  9990","PERIAPSIS":"546.412","OBJECT_NAME":"STARLINK-2143","ECCENTRICITY":"0.00011490","TLE_LINE2":"2 47733  53.0570 322.2877 0001149  84.1173 275.9947 15.06402002 32521","RCS_SIZE":"LARGE","DECAY_DATE":null,"MEAN_MOTION":"15.06402002","ARG_OF_PERICENTER":"84.1173","BSTAR":"0.00002237200000","SEMIMAJOR_AXIS":"6925.342","NORAD_CAT_ID":"47733","MEAN_ELEMENT_THEORY":"SGP4","REF_FRAME":"TEME","MEAN_MOTION_DDOT":"0.0000000000000","GP_ID":"185507465","MEAN_MOTION_DOT":"0.00000052","CENTER_NAME":"EARTH","ELEMENT_SET_NO":"999","SITE":"AFETR","INCLINATION":"53.0570","TIME_SYSTEM":"UTC","LAUNCH_DATE":"2021-03-04","CLASSIFICATION_TYPE":"U","APOAPSIS":"548.003","FILE":"3128274","EPOCH":"2021-09-25T10:14:18.989088","REV_AT_EPOCH":"3252"},{"MEAN_MOTION_DOT":"-0.00000615","ELEMENT_SET_NO":"999","CENTER_NAME":"EARTH","GP_ID":"185507715","MEAN_MOTION_DDOT":"0.0000000000000","FILE":"3128274","EPOCH":"2021-09-25T10:42:10.672704","APOAPSIS":"548.029","CLASSIFICATION_TYPE":"U","REV_AT_EPOCH":"3263","INCLINATION":"53.0559","SITE":"AFETR","TIME_SYSTEM":"UTC","LAUNCH_DATE":"2021-03-04","OBJECT_ID":"2021-017N","OBJECT_TYPE":"PAYLOAD","TLE_LINE1":"1 47734U 21017N   21268.44595686 -.00000615  00000-0 -22392-4 0  9998","PERIAPSIS":"546.394","OBJECT_NAME":"STARLINK-2144","ECCENTRICITY":"0.00011800","COUNTRY_CODE":"US","EPHEMERIS_TYPE":"0","PERIOD":"95.592","MEAN_ANOMALY":"289.0374","RA_OF_ASC_NODE":"312.1055","ARG_OF_PERICENTER":"71.0743","MEAN_MOTION":"15.06400646","MEAN_ELEMENT_THEORY":"SGP4","REF_FRAME":"TEME","SEMIMAJOR_AXIS":"6925.347","NORAD_CAT_ID":"47734","BSTAR":"-0.00002239200000","TLE_LINE2":"2 47734  53.0559 312.1055 0001180  71.0743 289.0374 15.06400646 32632","DECAY_DATE":null,"RCS_SIZE":"LARGE"},{"TIME_SYSTEM":"UTC","LAUNCH_DATE":"2021-03-04","SITE":"AFETR","INCLINATION":"53.0419","REV_AT_EPOCH":"3351","APOAPSIS":"352.813","FILE":"3128274","EPOCH":"2021-09-25T04:29:05.503200","CLASSIFICATION_TYPE":"U","GP_ID":"185505963","MEAN_MOTION_DDOT":"0.0000000000000","CENTER_NAME":"EARTH","ELEMENT_SET_NO":"999","MEAN_MOTION_DOT":"0.00045851","DECAY_DATE":null,"RCS_SIZE":"LARGE","TLE_LINE2":"2 47735  53.0419 246.1097 0004638 343.7202  16.3666 15.73223713 33515","NORAD_CAT_ID":"47735","SEMIMAJOR_AXIS":"6727.828","BSTAR":"0.00032879000000","MEAN_ELEMENT_THEORY":"SGP4","REF_FRAME":"TEME","ARG_OF_PERICENTER":"343.7202","MEAN_MOTION":"15.73223713","MEAN_ANOMALY":"16.3666","RA_OF_ASC_NODE":"246.1097","PERIOD":"91.532","TLE_LINE1":"1 47735U 21017P   21268.18686925  .00045851  00000-0  32879-3 0  9996","ECCENTRICITY":"0.00046380","PERIAPSIS":"346.572","OBJECT_NAME":"STARLINK-2146","EPHEMERIS_TYPE":"0","COUNTRY_CODE":"US","OBJECT_ID":"2021-017P","OBJECT_TYPE":"PAYLOAD"},{"TIME_SYSTEM":"UTC","LAUNCH_DATE":"2021-03-04","SITE":"AFETR","INCLINATION":"53.0571","REV_AT_EPOCH":"3286","FILE":"3128274","EPOCH":"2021-09-25T19:28:58.711296","APOAPSIS":"547.777","CLASSIFICATION_TYPE":"U","GP_ID":"185506213","MEAN_MOTION_DDOT":"0.0000000000000","ELEMENT_SET_NO":"999","CENTER_NAME":"EARTH","MEAN_MOTION_DOT":"-0.00000522","DECAY_DATE":null,"RCS_SIZE":"LARGE","TLE_LINE2":"2 47736  53.0571 300.4563 0000804  91.7966 268.3115 15.06397740 32868","REF_FRAME":"TEME","MEAN_ELEMENT_THEORY":"SGP4","BSTAR":"-0.00001614700000","SEMIMAJOR_AXIS":"6925.355","NORAD_CAT_ID":"47736","ARG_OF_PERICENTER":"91.7966","MEAN_MOTION":"15.06397740","MEAN_ANOMALY":"268.3115","RA_OF_ASC_NODE":"300.4563","PERIOD":"95.592","OBJECT_NAME":"STARLINK-2147","TLE_LINE1":"1 47736U 21017Q   21268.81179064 -.00000522  00000-0 -16147-4 0  9997","PERIAPSIS":"546.664","ECCENTRICITY":"0.00008040","COUNTRY_CODE":"US","EPHEMERIS_TYPE":"0","OBJECT_ID":"2021-017Q","OBJECT_TYPE":"PAYLOAD"},{"PERIOD":"91.531","RA_OF_ASC_NODE":"243.9046","MEAN_ANOMALY":"10.0001","OBJECT_TYPE":"PAYLOAD","OBJECT_ID":"2021-017R","COUNTRY_CODE":"US","EPHEMERIS_TYPE":"0","TLE_LINE1":"1 47737U 21017R   21268.63168894  .00053252  00000-0  38058-3 0  9997","PERIAPSIS":"346.513","OBJECT_NAME":"STARLINK-2148","ECCENTRICITY":"0.00046670","TLE_LINE2":"2 47737  53.0427 243.9046 0004667 350.0924  10.0001 15.73237608 33634","RCS_SIZE":"LARGE","DECAY_DATE":null,"MEAN_MOTION":"15.73237608","ARG_OF_PERICENTER":"350.0924","MEAN_ELEMENT_THEORY":"SGP4","REF_FRAME":"TEME","BSTAR":"0.00038058000000","SEMIMAJOR_AXIS":"6727.788","NORAD_CAT_ID":"47737","MEAN_MOTION_DDOT":"0.0000000000000","GP_ID":"185506965","MEAN_MOTION_DOT":"0.00053252","ELEMENT_SET_NO":"999","CENTER_NAME":"EARTH","INCLINATION":"53.0427","SITE":"AFETR","TIME_SYSTEM":"UTC","LAUNCH_DATE":"2021-03-04","CLASSIFICATION_TYPE":"U","FILE":"3128274","EPOCH":"2021-09-25T15:09:37.924416","APOAPSIS":"352.793","REV_AT_EPOCH":"3363"},{"TLE_LINE2":"2 47738  53.0547 302.4971 0006854 175.4374 184.6678 15.06415688 32790","RCS_SIZE":"LARGE","DECAY_DATE":null,"MEAN_MOTION":"15.06415688","ARG_OF_PERICENTER":"175.4374","MEAN_ELEMENT_THEORY":"SGP4","REF_FRAME":"TEME","SEMIMAJOR_AXIS":"6925.300","NORAD_CAT_ID":"47738","BSTAR":"0.00021933000000","PERIOD":"95.591","RA_OF_ASC_NODE":"302.4971","MEAN_ANOMALY":"184.6678","OBJECT_ID":"2021-017S","OBJECT_TYPE":"PAYLOAD","COUNTRY_CODE":"US","EPHEMERIS_TYPE":"0","PERIAPSIS":"542.419","TLE_LINE1":"1 47738U 21017S   21268.36206351  .00002988  00000-0  21933-3 0  9993","OBJECT_NAME":"STARLINK-2149","ECCENTRICITY":"0.00068540","INCLINATION":"53.0547","SITE":"AFETR","TIME_SYSTEM":"UTC","LAUNCH_DATE":"2021-03-04","CLASSIFICATION_TYPE":"U","FILE":"3128274","EPOCH":"2021-09-25T08:41:22.287264","APOAPSIS":"551.912","REV_AT_EPOCH":"3279","MEAN_MOTION_DDOT":"0.0000000000000","GP_ID":"185507215","MEAN_MOTION_DOT":"0.00002988","ELEMENT_SET_NO":"999","CENTER_NAME":"EARTH"},{"MEAN_MOTION_DDOT":"0.0000000000000","GP_ID":"185506464","ELEMENT_SET_NO":"999","CENTER_NAME":"EARTH","MEAN_MOTION_DOT":"-0.00000185","LAUNCH_DATE":"2021-03-04","TIME_SYSTEM":"UTC","INCLINATION":"53.0554","SITE":"AFETR","REV_AT_EPOCH":"3246","CLASSIFICATION_TYPE":"U","FILE":"3128274","EPOCH":"2021-09-25T11:25:17.919840","APOAPSIS":"548.091","RA_OF_ASC_NODE":"326.9809","MEAN_ANOMALY":"270.6899","PERIOD":"95.592","COUNTRY_CODE":"US","EPHEMERIS_TYPE":"0","PERIAPSIS":"546.348","TLE_LINE1":"1 47739U 21017T   21268.47590185 -.00000185  00000-0  64882-5 0  9997","ECCENTRICITY":"0.00012580","OBJECT_NAME":"STARLINK-2150","OBJECT_ID":"2021-017T","OBJECT_TYPE":"PAYLOAD","RCS_SIZE":"LARGE","DECAY_DATE":null,"TLE_LINE2":"2 47739  53.0554 326.9809 0001258  89.4234 270.6899 15.06398118 32465","MEAN_ELEMENT_THEORY":"SGP4","REF_FRAME":"TEME","BSTAR":"0.00000648820000","SEMIMAJOR_AXIS":"6925.354","NORAD_CAT_ID":"47739","MEAN_MOTION":"15.06398118","ARG_OF_PERICENTER":"89.4234"},{"SEMIMAJOR_AXIS":"6925.323","NORAD_CAT_ID":"47740","BSTAR":"0.00032263000000","MEAN_ELEMENT_THEORY":"SGP4","REF_FRAME":"TEME","ARG_OF_PERICENTER":"90.1924","MEAN_MOTION":"15.06408424","DECAY_DATE":null,"RCS_SIZE":"LARGE","TLE_LINE2":"2 47740  53.0551 312.3656 0001232  90.1924 269.9206 15.06408424 32656","TLE_LINE1":"1 47740U 21017U   21268.39068660  .00004528  00000-0  32263-3 0  9998","ECCENTRICITY":"0.00012320","PERIAPSIS":"546.335","OBJECT_NAME":"STARLINK-2152","EPHEMERIS_TYPE":"0","COUNTRY_CODE":"US","OBJECT_TYPE":"PAYLOAD","OBJECT_ID":"2021-017U","MEAN_ANOMALY":"269.9206","RA_OF_ASC_NODE":"312.3656","PERIOD":"95.592","REV_AT_EPOCH":"3265","APOAPSIS":"548.041","FILE":"3128274","EPOCH":"2021-09-25T09:22:35.322240","CLASSIFICATION_TYPE":"U","LAUNCH_DATE":"2021-03-04","TIME_SYSTEM":"UTC","SITE":"AFETR","INCLINATION":"53.0551","CENTER_NAME":"EARTH","ELEMENT_SET_NO":"999","MEAN_MOTION_DOT":"0.00004528","GP_ID":"185506714","MEAN_MOTION_DDOT":"0.0000000000000"},{"FILE":"3128274","EPOCH":"2021-09-25T09:43:47.738496","APOAPSIS":"547.966","CLASSIFICATION_TYPE":"U","REV_AT_EPOCH":"3261","SITE":"AFETR","INCLINATION":"53.0564","LAUNCH_DATE":"2021-03-04","TIME_SYSTEM":"UTC","MEAN_MOTION_DOT":"-0.00000190","ELEMENT_SET_NO":"999","CENTER_NAME":"EARTH","GP_ID":"185507466","MEAN_MOTION_DDOT":"0.0000000000000","ARG_OF_PERICENTER":"82.5238","MEAN_MOTION":"15.06400862","REF_FRAME":"TEME","MEAN_ELEMENT_THEORY":"SGP4","BSTAR":"0.00000612340000","SEMIMAJOR_AXIS":"6925.346","NORAD_CAT_ID":"47741","TLE_LINE2":"2 47741  53.0564 312.2961 0001090  82.5238 277.5875 15.06400862 32615","RCS_SIZE":"LARGE","DECAY_DATE":null,"OBJECT_TYPE":"PAYLOAD","OBJECT_ID":"2021-017V","OBJECT_NAME":"STARLINK-2154","TLE_LINE1":"1 47741U 21017V   21268.40541364 -.00000190  00000-0  61234-5 0  9992","PERIAPSIS":"546.456","ECCENTRICITY":"0.00010900","COUNTRY_CODE":"US","EPHEMERIS_TYPE":"0","PERIOD":"95.592","MEAN_ANOMALY":"277.5875","RA_OF_ASC_NODE":"312.2961"}];
